{
  "norad_id": 67114,
  "name": "STARLINK-36180",
  "history": [
    {
      "epoch": "2026-03-28T15:31:24.187872",
      "apogee_km": 483.82845292128786,
      "perigee_km": 482.2160804936111,
      "latitude_deg": -37.82218326163456,
      "longitude_deg": -126.50645792018622,
      "semi_major_axis_km": 6861.159266707449,
      "eccentricity": 0.0001175,
      "inclination_deg": 43.0012,
      "raan_deg": 62.0922,
      "arg_perigee_deg": 269.8102,
      "mean_anomaly_deg": 90.2615,
      "mean_motion_rev_day": 15.2758896
    }
  ]
}